<?xml version="1.0" encoding="UTF-8"?>
<ndm xmlns:xsi="http://www.w3.org/2001/XMLSchema-instance" xsi:noNamespaceSchemaLocation="https://sanaregistry.org/r/ndmxml_unqualified/ndmxml-2.0.0-master-2.0.xsd">
<omm id="CCSDS_OMM_VERS" version="2.0">
<header><CREATION_DATE/><ORIGINATOR/></header><body><segment><metadata><OBJECT_NAME>ORBCOMM FM115</OBJECT_NAME><OBJECT_ID>2015-081H</OBJECT_ID><CENTER_NAME>EARTH</CENTER_NAME><REF_FRAME>TEME</REF_FRAME><TIME_SYSTEM>UTC</TIME_SYSTEM><MEAN_ELEMENT_THEORY>SGP4</MEAN_ELEMENT_THEORY></metadata><data><meanElements><EPOCH>2025-02-21T22:12:39.070080</EPOCH><MEAN_MOTION>14.62110316</MEAN_MOTION><ECCENTRICITY>.0001431</ECCENTRICITY><INCLINATION>46.9964</INCLINATION><RA_OF_ASC_NODE>227.6115</RA_OF_ASC_NODE><ARG_OF_PERICENTER>237.2383</ARG_OF_PERICENTER><MEAN_ANOMALY>122.8366</MEAN_ANOMALY></meanElements><tleParameters><EPHEMERIS_TYPE>0</EPHEMERIS_TYPE><CLASSIFICATION_TYPE>U</CLASSIFICATION_TYPE><NORAD_CAT_ID>41186</NORAD_CAT_ID><ELEMENT_SET_NO>999</ELEMENT_SET_NO><REV_AT_EPOCH>49090</REV_AT_EPOCH><BSTAR>.42513E-3</BSTAR><MEAN_MOTION_DOT>.1983E-4</MEAN_MOTION_DOT><MEAN_MOTION_DDOT>0</MEAN_MOTION_DDOT></tleParameters></data></segment></body></omm>
<omm id="CCSDS_OMM_VERS" version="2.0">
<header><CREATION_DATE/><ORIGINATOR/></header><body><segment><metadata><OBJECT_NAME>ORBCOMM FM108</OBJECT_NAME><OBJECT_ID>2015-081J</OBJECT_ID><CENTER_NAME>EARTH</CENTER_NAME><REF_FRAME>TEME</REF_FRAME><TIME_SYSTEM>UTC</TIME_SYSTEM><MEAN_ELEMENT_THEORY>SGP4</MEAN_ELEMENT_THEORY></metadata><data><meanElements><EPOCH>2025-02-21T21:49:08.139072</EPOCH><MEAN_MOTION>14.57816954</MEAN_MOTION><ECCENTRICITY>.0002513</ECCENTRICITY><INCLINATION>47.0044</INCLINATION><RA_OF_ASC_NODE>291.2631</RA_OF_ASC_NODE><ARG_OF_PERICENTER>143.4684</ARG_OF_PERICENTER><MEAN_ANOMALY>216.6373</MEAN_ANOMALY></meanElements><tleParameters><EPHEMERIS_TYPE>0</EPHEMERIS_TYPE><CLASSIFICATION_TYPE>U</CLASSIFICATION_TYPE><NORAD_CAT_ID>41187</NORAD_CAT_ID><ELEMENT_SET_NO>999</ELEMENT_SET_NO><REV_AT_EPOCH>48997</REV_AT_EPOCH><BSTAR>.3927E-3</BSTAR><MEAN_MOTION_DOT>.1645E-4</MEAN_MOTION_DOT><MEAN_MOTION_DDOT>0</MEAN_MOTION_DDOT></tleParameters></data></segment></body></omm>
<omm id="CCSDS_OMM_VERS" version="2.0">
<header><CREATION_DATE/><ORIGINATOR/></header><body><segment><metadata><OBJECT_NAME>ORBCOMM FM117</OBJECT_NAME><OBJECT_ID>2015-081K</OBJECT_ID><CENTER_NAME>EARTH</CENTER_NAME><REF_FRAME>TEME</REF_FRAME><TIME_SYSTEM>UTC</TIME_SYSTEM><MEAN_ELEMENT_THEORY>SGP4</MEAN_ELEMENT_THEORY></metadata><data><meanElements><EPOCH>2025-02-21T22:39:17.156448</EPOCH><MEAN_MOTION>14.57823792</MEAN_MOTION><ECCENTRICITY>.00029</ECCENTRICITY><INCLINATION>47.0004</INCLINATION><RA_OF_ASC_NODE>289.8999</RA_OF_ASC_NODE><ARG_OF_PERICENTER>153.0355</ARG_OF_PERICENTER><MEAN_ANOMALY>207.0681</MEAN_ANOMALY></meanElements><tleParameters><EPHEMERIS_TYPE>0</EPHEMERIS_TYPE><CLASSIFICATION_TYPE>U</CLASSIFICATION_TYPE><NORAD_CAT_ID>41188</NORAD_CAT_ID><ELEMENT_SET_NO>999</ELEMENT_SET_NO><REV_AT_EPOCH>49002</REV_AT_EPOCH><BSTAR>.38931E-3</BSTAR><MEAN_MOTION_DOT>.163E-4</MEAN_MOTION_DOT><MEAN_MOTION_DDOT>0</MEAN_MOTION_DDOT></tleParameters></data></segment></body></omm>
<omm id="CCSDS_OMM_VERS" version="2.0">
<header><CREATION_DATE/><ORIGINATOR/></header><body><segment><metadata><OBJECT_NAME>ORBCOMM FM116</OBJECT_NAME><OBJECT_ID>2015-081L</OBJECT_ID><CENTER_NAME>EARTH</CENTER_NAME><REF_FRAME>TEME</REF_FRAME><TIME_SYSTEM>UTC</TIME_SYSTEM><MEAN_ELEMENT_THEORY>SGP4</MEAN_ELEMENT_THEORY></metadata><data><meanElements><EPOCH>2025-02-22T03:21:56.859552</EPOCH><MEAN_MOTION>14.57791195</MEAN_MOTION><ECCENTRICITY>.0002062</ECCENTRICITY><INCLINATION>47.0026</INCLINATION><RA_OF_ASC_NODE>18.8289</RA_OF_ASC_NODE><ARG_OF_PERICENTER>260.1547</ARG_OF_PERICENTER><MEAN_ANOMALY>99.9106</MEAN_ANOMALY></meanElements><tleParameters><EPHEMERIS_TYPE>0</EPHEMERIS_TYPE><CLASSIFICATION_TYPE>U</CLASSIFICATION_TYPE><NORAD_CAT_ID>41189</NORAD_CAT_ID><ELEMENT_SET_NO>999</ELEMENT_SET_NO><REV_AT_EPOCH>48893</REV_AT_EPOCH><BSTAR>.47276E-3</BSTAR><MEAN_MOTION_DOT>.2014E-4</MEAN_MOTION_DOT><MEAN_MOTION_DDOT>0</MEAN_MOTION_DDOT></tleParameters></data></segment></body></omm>
</ndm>
