ORBCOMM FM115           
1 41186U 15081H   25052.92545220  .00001983  00000+0  42513-3 0  9996
2 41186  46.9964 227.6115 0001431 237.2383 122.8366 14.62110316490906
ORBCOMM FM108           
1 41187U 15081J   25052.90912198  .00001645  00000+0  39270-3 0  9998
2 41187  47.0044 291.2631 0002513 143.4684 216.6373 14.57816954489972
ORBCOMM FM117           
1 41188U 15081K   25052.94394857  .00001630  00000+0  38931-3 0  9996
2 41188  47.0004 289.8999 0002900 153.0355 207.0681 14.57823792490023
ORBCOMM FM116           
1 41189U 15081L   25053.14024143  .00002014  00000+0  47276-3 0  9997
2 41189  47.0026  18.8289 0002062 260.1547  99.9106 14.57791195488930
